{"fetched_at":"2026-07-12T17:32:27.314Z","source":"https://celestrak.org/NORAD/elements/gp.php?GROUP=spire&FORMAT=JSON","constellation":"spire","records":[{"OBJECT_NAME":"LEMUR-2-MYRA","OBJECT_ID":"2025-276EC","EPOCH":"2026-07-11T17:39:17.777952","CLASSIFICATION_TYPE":"U","MEAN_MOTION":15.0056439,"ECCENTRICITY":0.00185373,"INCLINATION":97.5222,"RA_OF_ASC_NODE":262.8153,"ARG_OF_PERICENTER":64.752,"MEAN_ANOMALY":295.5623,"EPHEMERIS_TYPE":0,"NORAD_CAT_ID":66787,"ELEMENT_SET_NO":999,"REV_AT_EPOCH":3389,"BSTAR":0.00028884514,"MEAN_MOTION_DOT":0.000036,"MEAN_MOTION_DDOT":0},{"OBJECT_NAME":"LEMUR-2 FIKRETDENGIZ","OBJECT_ID":"2026-004A","EPOCH":"2026-07-12T11:29:33.095328","CLASSIFICATION_TYPE":"U","MEAN_MOTION":14.88505082,"ECCENTRICITY":0.0010325,"INCLINATION":97.8023,"RA_OF_ASC_NODE":191.6517,"ARG_OF_PERICENTER":63.4984,"MEAN_ANOMALY":296.7291,"EPHEMERIS_TYPE":0,"NORAD_CAT_ID":67363,"ELEMENT_SET_NO":999,"REV_AT_EPOCH":2704,"BSTAR":0.00027053,"MEAN_MOTION_DOT":0.00002461,"MEAN_MOTION_DDOT":0},{"OBJECT_NAME":"TWILIGHT-1 OBJECT B","OBJECT_ID":"2026-004B","EPOCH":"2026-07-12T12:21:08.777952","CLASSIFICATION_TYPE":"U","MEAN_MOTION":14.87787971,"ECCENTRICITY":0.000991,"INCLINATION":97.8073,"RA_OF_ASC_NODE":191.6894,"ARG_OF_PERICENTER":53.6882,"MEAN_ANOMALY":306.5248,"EPHEMERIS_TYPE":0,"NORAD_CAT_ID":67364,"ELEMENT_SET_NO":999,"REV_AT_EPOCH":2705,"BSTAR":0.00011076,"MEAN_MOTION_DOT":0.00000957,"MEAN_MOTION_DDOT":0},{"OBJECT_NAME":"LEMUR-2-MARIO-SOUSA","OBJECT_ID":"2026-004C","EPOCH":"2026-07-12T11:01:06.087936","CLASSIFICATION_TYPE":"U","MEAN_MOTION":14.88713133,"ECCENTRICITY":0.0009979,"INCLINATION":97.7995,"RA_OF_ASC_NODE":191.6272,"ARG_OF_PERICENTER":64.6418,"MEAN_ANOMALY":295.5831,"EPHEMERIS_TYPE":0,"NORAD_CAT_ID":67365,"ELEMENT_SET_NO":999,"REV_AT_EPOCH":2705,"BSTAR":0.00026547,"MEAN_MOTION_DOT":0.00002427,"MEAN_MOTION_DDOT":0},{"OBJECT_NAME":"LEMUR-2-SONNENBLUME","OBJECT_ID":"2026-004E","EPOCH":"2026-07-12T11:04:29.546976","CLASSIFICATION_TYPE":"U","MEAN_MOTION":14.88444773,"ECCENTRICITY":0.0009543,"INCLINATION":97.7992,"RA_OF_ASC_NODE":191.6035,"ARG_OF_PERICENTER":66.1852,"MEAN_ANOMALY":294.0364,"EPHEMERIS_TYPE":0,"NORAD_CAT_ID":67367,"ELEMENT_SET_NO":999,"REV_AT_EPOCH":2705,"BSTAR":0.0001761,"MEAN_MOTION_DOT":0.0000158,"MEAN_MOTION_DDOT":0},{"OBJECT_NAME":"LEMUR-2-WOBLER","OBJECT_ID":"2026-004F","EPOCH":"2026-07-12T10:49:42.498048","CLASSIFICATION_TYPE":"U","MEAN_MOTION":14.88685877,"ECCENTRICITY":0.0009641,"INCLINATION":97.8046,"RA_OF_ASC_NODE":191.7416,"ARG_OF_PERICENTER":57.719,"MEAN_ANOMALY":302.4959,"EPHEMERIS_TYPE":0,"NORAD_CAT_ID":67368,"ELEMENT_SET_NO":999,"REV_AT_EPOCH":2705,"BSTAR":0.00020253,"MEAN_MOTION_DOT":0.00001837,"MEAN_MOTION_DDOT":0},{"OBJECT_NAME":"LEMUR-2-GRAM-E-SUE","OBJECT_ID":"2026-004H","EPOCH":"2026-07-12T12:14:53.490048","CLASSIFICATION_TYPE":"U","MEAN_MOTION":14.88581814,"ECCENTRICITY":0.0008715,"INCLINATION":97.7985,"RA_OF_ASC_NODE":191.6682,"ARG_OF_PERICENTER":68.3186,"MEAN_ANOMALY":291.8958,"EPHEMERIS_TYPE":0,"NORAD_CAT_ID":67370,"ELEMENT_SET_NO":999,"REV_AT_EPOCH":2706,"BSTAR":0.00014289,"MEAN_MOTION_DOT":0.00001276,"MEAN_MOTION_DDOT":0},{"OBJECT_NAME":"LEMUR-2-KATIE","OBJECT_ID":"2026-004AA","EPOCH":"2026-07-12T12:53:54.394368","CLASSIFICATION_TYPE":"U","MEAN_MOTION":14.90236221,"ECCENTRICITY":0.0003701,"INCLINATION":97.8041,"RA_OF_ASC_NODE":192.2374,"ARG_OF_PERICENTER":40.2246,"MEAN_ANOMALY":319.9245,"EPHEMERIS_TYPE":0,"NORAD_CAT_ID":67387,"ELEMENT_SET_NO":999,"REV_AT_EPOCH":2708,"BSTAR":0.00031244,"MEAN_MOTION_DOT":0.00002975,"MEAN_MOTION_DDOT":0},{"OBJECT_NAME":"LEMUR-2-HCS-BAZUS","OBJECT_ID":"2026-004AB","EPOCH":"2026-07-12T12:51:34.327872","CLASSIFICATION_TYPE":"U","MEAN_MOTION":14.90252616,"ECCENTRICITY":0.0003217,"INCLINATION":97.8037,"RA_OF_ASC_NODE":192.2146,"ARG_OF_PERICENTER":39.3567,"MEAN_ANOMALY":320.7884,"EPHEMERIS_TYPE":0,"NORAD_CAT_ID":67388,"ELEMENT_SET_NO":999,"REV_AT_EPOCH":2708,"BSTAR":0.00016706,"MEAN_MOTION_DOT":0.00001566,"MEAN_MOTION_DDOT":0}]}
