LEMUR-2-MYRA            
1 66787U 25276EC  26192.73562243  .00003600  00000+0  28885-3 0  9990
2 66787  97.5222 262.8153 0018537  64.7520 295.5623 15.00564390 33896
LEMUR-2 FIKRETDENGIZ    
1 67363U 26004A   26193.47885527  .00002461  00000+0  27053-3 0  9996
2 67363  97.8023 191.6517 0010325  63.4984 296.7291 14.88505082 27041
TWILIGHT-1 OBJECT B     
1 67364U 26004B   26193.51468493  .00000957  00000+0  11076-3 0  9997
2 67364  97.8073 191.6894 0009910  53.6882 306.5248 14.87787971 27052
LEMUR-2-MARIO-SOUSA     
1 67365U 26004C   26193.45909824  .00002427  00000+0  26547-3 0  9992
2 67365  97.7995 191.6272 0009979  64.6418 295.5831 14.88713133 27052
LEMUR-2-SONNENBLUME     
1 67367U 26004E   26193.46145309  .00001580  00000+0  17610-3 0  9995
2 67367  97.7992 191.6035 0009543  66.1852 294.0364 14.88444773 27050
LEMUR-2-WOBLER          
1 67368U 26004F   26193.45118632  .00001837  00000+0  20253-3 0  9996
2 67368  97.8046 191.7416 0009641  57.7190 302.4959 14.88685877 27052
LEMUR-2-GRAM-E-SUE      
1 67370U 26004H   26193.51034132  .00001276  00000+0  14289-3 0  9997
2 67370  97.7985 191.6682 0008715  68.3186 291.8958 14.88581814 27061
LEMUR-2-KATIE           
1 67387U 26004AA  26193.53743512  .00002975  00000+0  31244-3 0  9993
2 67387  97.8041 192.2374 0003701  40.2246 319.9245 14.90236221 27089
LEMUR-2-HCS-BAZUS       
1 67388U 26004AB  26193.53581398  .00001566  00000+0  16706-3 0  9997
2 67388  97.8037 192.2146 0003217  39.3567 320.7884 14.90252616 27084
